CTC2_L_00363016-03
1 10062U 25987RH  26075.70045139  .00000000  00000+0  00000-0 0  9998
2 10062  95.0000 180.0000 0000000   0.0000   0.0000 13.29142335    18
CTC2_L_00363016-04
1 10063U 22941FO  26075.70045139  .00000000  00000+0  00000-0 0  9996
2 10063  95.0000 180.0000 0000000   0.0000  90.0000 13.29142335    18
CTC2_L_00363017-01
1 10064U 22974AT  26075.70045139  .00000000  00000+0  00000-0 0  9993
2 10064  95.0000 192.0000 0000000   0.0000 192.0000 13.29142335    15
CTC2_L_00363017-02
1 10065U 25631TS  26075.70045139  .00000000  00000+0  00000-0 0  9997
2 10065  95.0000 192.0000 0000000   0.0000 282.0000 13.29142335    16
CTC2_L_00363017-03
1 10066U 26330LW  26075.70045139  .00000000  00000+0  00000-0 0  9995
2 10066  95.0000 192.0000 0000000   0.0000  12.0000 13.29142335    18
CTC2_L_00363017-04
1 10067U 25818HS  26075.70045139  .00000000  00000+0  00000-0 0  9996
2 10067  95.0000 192.0000 0000000   0.0000 102.0000 13.29142335    19
CTC2_L_00363018-01
1 10068U 26938RD  26075.70045139  .00000000  00000+0  00000-0 0  9991
2 10068  95.0000 204.0000 0000000   0.0000 204.0000 13.29142335    17
CTC2_L_00363018-02
1 10069U 26876VA  26075.70045139  .00000000  00000+0  00000-0 0  9993
2 10069  95.0000 204.0000 0000000   0.0000 294.0000 13.29142335    17
CTC2_L_00363018-03
1 10070U 25527QW  26075.70045139  .00000000  00000+0  00000-0 0  9997
2 10070  95.0000 204.0000 0000000   0.0000  24.0000 13.29142335    10
CTC2_L_00363018-04
1 10071U 26662CH  26075.70045139  .00000000  00000+0  00000-0 0  9999
2 10071  95.0000 204.0000 0000000   0.0000 114.0000 13.29142335    11
CTC2_L_00363019-01
1 10072U 25174YS  26075.70045139  .00000000  00000+0  00000-0 0  9997
2 10072  95.0000 216.0000 0000000   0.0000 216.0000 13.29142335    18
CTC2_L_00363019-02
1 10073U 24606GQ  26075.70045139  .00000000  00000+0  00000-0 0  9997
2 10073  95.0000 216.0000 0000000   0.0000 306.0000 13.29142335    19
CTC2_L_00363019-03
1 10074U 23187JK  26075.70045139  .00000000  00000+0  00000-0 0  9991
2 10074  95.0000 216.0000 0000000   0.0000  36.0000 13.29142335    10
CTC2_L_00363019-04
1 10075U 22634MU  26075.70045139  .00000000  00000+0  00000-0 0  9998
2 10075  95.0000 216.0000 0000000   0.0000 126.0000 13.29142335    11
CTC2_L_00363020-01
1 10076U 24140TG  26075.70045139  .00000000  00000+0  00000-0 0  9993
2 10076  95.0000 228.0000 0000000   0.0000 228.0000 13.29142335    18
CTC2_L_00363020-02
1 10077U 22488PJ  26075.70045139  .00000000  00000+0  00000-0 0  9997
2 10077  95.0000 228.0000 0000000   0.0000 318.0000 13.29142335    19
CTC2_L_00363020-03
1 10078U 23131PF  26075.70045139  .00000000  00000+0  00000-0 0  9994
2 10078  95.0000 228.0000 0000000   0.0000  48.0000 13.29142335    10
CTC2_L_00363020-04
1 10079U 24571KT  26075.70045139  .00000000  00000+0  00000-0 0  9994
2 10079  95.0000 228.0000 0000000   0.0000 138.0000 13.29142335    11
CTC2_L_00363021-01
1 10080U 24554WC  26075.70045139  .00000000  00000+0  00000-0 0  9997
2 10080  95.0000 240.0000 0000000   0.0000 240.0000 13.29142335    11
CTC2_L_00363021-02
1 10081U 22482BG  26075.70045139  .00000000  00000+0  00000-0 0  9996
2 10081  95.0000 240.0000 0000000   0.0000 330.0000 13.29142335    12
CTC2_L_00363021-03
1 10082U 23077YT  26075.70045139  .00000000  00000+0  00000-0 0  9998
2 10082  95.0000 240.0000 0000000   0.0000  60.0000 13.29142335    13
CTC2_L_00363021-04
1 10083U 23399N   26075.70045139  .00000000  00000+0  00000-0 0  9996
2 10083  95.0000 240.0000 0000000   0.0000 150.0000 13.29142335    14
CTC2_L_00363022-01
1 10084U 22918NU  26075.70045139  .00000000  00000+0  00000-0 0  9993
2 10084  95.0000 252.0000 0000000   0.0000 252.0000 13.29142335    11
CTC2_L_00363022-02
1 10085U 26149ZB  26075.70045139  .00000000  00000+0  00000-0 0  9994
2 10085  95.0000 252.0000 0000000   0.0000 342.0000 13.29142335    12
CTC2_L_00363022-03
1 10086U 23356LQ  26075.70045139  .00000000  00000+0  00000-0 0  9992
2 10086  95.0000 252.0000 0000000   0.0000  72.0000 13.29142335    13
CTC2_L_00363022-04
1 10087U 22465RN  26075.70045139  .00000000  00000+0  00000-0 0  9993
2 10087  95.0000 252.0000 0000000   0.0000 162.0000 13.29142335    14
CTC2_L_00363023-01
1 10088U 25913VC  26075.70045139  .00000000  00000+0  00000-0 0  9995
2 10088  95.0000 264.0000 0000000   0.0000 264.0000 13.29142335    11
CTC2_L_00363023-02
1 10089U 23751QS  26075.70045139  .00000000  00000+0  00000-0 0  9994
2 10089  95.0000 264.0000 0000000   0.0000 354.0000 13.29142335    12
CTC2_L_00363023-03
1 10090U 26404EJ  26075.70045139  .00000000  00000+0  00000-0 0  9994
2 10090  95.0000 264.0000 0000000   0.0000  84.0000 13.29142335    14
CTC2_L_00363023-04
1 10091U 26899JR  26075.70045139  .00000000  00000+0  00000-0 0  9993
2 10091  95.0000 264.0000 0000000   0.0000 174.0000 13.29142335    15
CTC2_L_00363024-01
1 10092U 26196AJ  26075.70045139  .00000000  00000+0  00000-0 0  9994
2 10092  95.0000 276.0000 0000000   0.0000 276.0000 13.29142335    12
CTC2_L_00363024-02
1 10093U 25536YP  26075.70045139  .00000000  00000+0  00000-0 0  9992
2 10093  95.0000 276.0000 0000000   0.0000   6.0000 13.29142335    14
CTC2_L_00363024-03
1 10094U 23028HP  26075.70045139  .00000000  00000+0  00000-0 0  9997
2 10094  95.0000 276.0000 0000000   0.0000  96.0000 13.29142335    14
CTC2_L_00363024-04
1 10095U 25882TJ  26075.70045139  .00000000  00000+0  00000-0 0  9998
2 10095  95.0000 276.0000 0000000   0.0000 186.0000 13.29142335    15
CTC2_L_00363025-01
1 10096U 25466YY  26075.70045139  .00000000  00000+0  00000-0 0  9997
2 10096  95.0000 288.0000 0000000   0.0000 288.0000 13.29142335    12
CTC2_L_00363025-02
1 10097U 26403VA  26075.70045139  .00000000  00000+0  00000-0 0  9990
2 10097  95.0000 288.0000 0000000   0.0000  18.0000 13.29142335    14
CTC2_L_00363025-03
1 10098U 23920MD  26075.70045139  .00000000  00000+0  00000-0 0  9992
2 10098  95.0000 288.0000 0000000   0.0000 108.0000 13.29142335    15
CTC2_L_00363025-04
1 10099U 22526HP  26075.70045139  .00000000  00000+0  00000-0 0  9994
2 10099  95.0000 288.0000 0000000   0.0000 198.0000 13.29142335    15
CTC2_L_00363026-01
1 10100U 26654QI  26075.70045139  .00000000  00000+0  00000-0 0  9993
2 10100  95.0000 300.0000 0000000   0.0000 300.0000 13.29142335    18
CTC2_L_00363026-02
1 10101U 26463CC  26075.70045139  .00000000  00000+0  00000-0 0  9992
2 10101  95.0000 300.0000 0000000   0.0000  30.0000 13.29142335    19
CTC2_L_00363026-03
1 10102U 26516EL  26075.70045139  .00000000  00000+0  00000-0 0  9992
2 10102  95.0000 300.0000 0000000   0.0000 120.0000 13.29142335    10
CTC2_L_00363026-04
1 10103U 26695PK  26075.70045139  .00000000  00000+0  00000-0 0  9991
2 10103  95.0000 300.0000 0000000   0.0000 210.0000 13.29142335    11
CTC2_L_00363027-01
1 10104U 23530IL  26075.70045139  .00000000  00000+0  00000-0 0  9997
2 10104  95.0000 312.0000 0000000   0.0000 312.0000 13.29142335    18
CTC2_L_00363027-02
1 10105U 26556OC  26075.70045139  .00000000  00000+0  00000-0 0  9999
2 10105  95.0000 312.0000 0000000   0.0000  42.0000 13.29142335    19
CTC2_L_00363027-03
1 10106U 22963I   26075.70045139  .00000000  00000+0  00000-0 0  9998
2 10106  95.0000 312.0000 0000000   0.0000 132.0000 13.29142335    10
CTC2_L_00363027-04
1 10107U 22648CV  26075.70045139  .00000000  00000+0  00000-0 0  9999
2 10107  95.0000 312.0000 0000000   0.0000 222.0000 13.29142335    11
CTC2_L_00363028-01
1 10108U 26600CH  26075.70045139  .00000000  00000+0  00000-0 0  9992
2 10108  95.0000 324.0000 0000000   0.0000 324.0000 13.29142335    18
CTC2_L_00363028-02
1 10109U 24402MI  26075.70045139  .00000000  00000+0  00000-0 0  9991
2 10109  95.0000 324.0000 0000000   0.0000  54.0000 13.29142335    19
CTC2_L_00363028-03
1 10110U 23011SF  26075.70045139  .00000000  00000+0  00000-0 0  9998
2 10110  95.0000 324.0000 0000000   0.0000 144.0000 13.29142335    11
CTC2_L_00363028-04
1 10111U 26692M   26075.70045139  .00000000  00000+0  00000-0 0  9997
2 10111  95.0000 324.0000 0000000   0.0000 234.0000 13.29142335    12
CTC2_L_00363029-01
1 10112U 23251AZ  26075.70045139  .00000000  00000+0  00000-0 0  9996
2 10112  95.0000 336.0000 0000000   0.0000 336.0000 13.29142335    19
CTC2_L_00363029-02
1 10113U 26204HR  26075.70045139  .00000000  00000+0  00000-0 0  9998
2 10113  95.0000 336.0000 0000000   0.0000  66.0000 13.29142335    10
CTC2_L_00363029-03
1 10114U 22898JE  26075.70045139  .00000000  00000+0  00000-0 0  9994
2 10114  95.0000 336.0000 0000000   0.0000 156.0000 13.29142335    11
CTC2_L_00363029-04
1 10115U 25115VN  26075.70045139  .00000000  00000+0  00000-0 0  9990
2 10115  95.0000 336.0000 0000000   0.0000 246.0000 13.29142335    12
CTC2_L_00363030-01
1 10116U 24982RM  26075.70045139  .00000000  00000+0  00000-0 0  9992
2 10116  95.0000 348.0000 0000000   0.0000 348.0000 13.29142335    19
CTC2_L_00363030-02
1 10117U 23175UO  26075.70045139  .00000000  00000+0  00000-0 0  9996
2 10117  95.0000 348.0000 0000000   0.0000  78.0000 13.29142335    10
CTC2_L_00363030-03
1 10118U 24472JI  26075.70045139  .00000000  00000+0  00000-0 0  9998
2 10118  95.0000 348.0000 0000000   0.0000 168.0000 13.29142335    11
CTC2_L_00363030-04
1 10119U 25010NF  26075.70045139  .00000000  00000+0  00000-0 0  9998
2 10119  95.0000 348.0000 0000000   0.0000 258.0000 13.29142335    12
